{"type": "FeatureCollection", "features": [ {"type": "Feature", "properties": {"norad_id": 40664, "name": "SKY MEXICO-1", "group": "intelsat", "lat": 0.037743037339454805, "lon": 66.64349454696901, "alt_km": 35797.18716987288, "timestamp": "2025-12-03T04:52:29.309310+00:00", "meta": {"OBJECT_NAME": "SKY MEXICO-1", "OBJECT_ID": "2015-026B", "EPOCH": "2025-12-02T13:24:27.194976", "MEAN_MOTION": 1.00270806, "ECCENTRICITY": 0.00026754, "INCLINATION": 0.0155, "RA_OF_ASC_NODE": 319.1317, "ARG_OF_PERICENTER": 305.5311, "MEAN_ANOMALY": 289.356, "EPHEMERIS_TYPE": 0, "CLASSIFICATION_TYPE": "U", "NORAD_CAT_ID": 40664, "ELEMENT_SET_NO": 999, "REV_AT_EPOCH": 3848, "BSTAR": 0, "MEAN_MOTION_DOT": -2.14e-06, "MEAN_MOTION_DDOT": 0}, "tle": {"line1": "1 40664U 15026B   25336.55864809 -.00000214  00000+0  00000+0 0  9994", "line2": "2 40664   0.0155 319.1317 0002675 305.5311 289.3560  1.00270806 38486"}}, "geometry": {"type": "Point", "coordinates": [66.64349454696901, 0.037743037339454805]}}, {"type": "Feature", "properties": {"norad_id": 40874, "name": "INTELSAT 34 (IS-34)", "group": "intelsat", "lat": 0.022685876663619726, "lon": 89.88682055347702, "alt_km": 35785.88692640195, "timestamp": "2025-12-03T04:52:29.309322+00:00", "meta": {"OBJECT_NAME": "INTELSAT 34 (IS-34)", "OBJECT_ID": "2015-039A", "EPOCH": "2025-12-02T19:49:38.654112", "MEAN_MOTION": 1.00270458, "ECCENTRICITY": 5.74e-05, "INCLINATION": 0.0148, "RA_OF_ASC_NODE": 299.8564, "ARG_OF_PERICENTER": 225.27, "MEAN_ANOMALY": 148.7124, "EPHEMERIS_TYPE": 0, "CLASSIFICATION_TYPE": "U", "NORAD_CAT_ID": 40874, "ELEMENT_SET_NO": 999, "REV_AT_EPOCH": 3765, "BSTAR": 0, "MEAN_MOTION_DOT": -2.65e-06, "MEAN_MOTION_DDOT": 0}, "tle": {"line1": "1 40874U 15039A   25336.82614183 -.00000265  00000+0  00000+0 0  9995", "line2": "2 40874   0.0148 299.8564 0000574 225.2700 148.7124  1.00270458 37650"}}, "geometry": {"type": "Point", "coordinates": [89.88682055347702, 0.022685876663619726]}}, {"type": "Feature", "properties": {"norad_id": 41581, "name": "INTELSAT 31 (IS-31)", "group": "intelsat", "lat": 0.027345854654964103, "lon": 50.32922812967215, "alt_km": 35794.65949698153, "timestamp": "2025-12-03T04:52:29.309334+00:00", "meta": {"OBJECT_NAME": "INTELSAT 31 (IS-31)", "OBJECT_ID": "2016-035A", "EPOCH": "2025-12-02T09:32:38.891904", "MEAN_MOTION": 1.00269687, "ECCENTRICITY": 0.00019053, "INCLINATION": 0.0144, "RA_OF_ASC_NODE": 272.373, "ARG_OF_PERICENTER": 308.7593, "MEAN_ANOMALY": 258.4788, "EPHEMERIS_TYPE": 0, "CLASSIFICATION_TYPE": "U", "NORAD_CAT_ID": 41581, "ELEMENT_SET_NO": 999, "REV_AT_EPOCH": 3471, "BSTAR": 0, "MEAN_MOTION_DOT": -1.3e-06, "MEAN_MOTION_DDOT": 0}, "tle": {"line1": "1 41581U 16035A   25336.39767236 -.00000130  00000+0  00000+0 0  9999", "line2": "2 41581   0.0144 272.3730 0001905 308.7593 258.4788  1.00269687 34710"}}, "geometry": {"type": "Point", "coordinates": [50.32922812967215, 0.027345854654964103]}}, {"type": "Feature", "properties": {"norad_id": 41747, "name": "INTELSAT 36 (IS-36)", "group": "intelsat", "lat": -0.028818687118918475, "lon": -146.12391116174328, "alt_km": 35788.72943333757, "timestamp": "2025-12-03T04:52:29.309345+00:00", "meta": {"OBJECT_NAME": "INTELSAT 36 (IS-36)", "OBJECT_ID": "2016-053A", "EPOCH": "2025-12-02T02:07:30.067680", "MEAN_MOTION": 1.00267364, "ECCENTRICITY": 0.00011383, "INCLINATION": 0.0112, "RA_OF_ASC_NODE": 345.1763, "ARG_OF_PERICENTER": 336.3829, "MEAN_ANOMALY": 210.0274, "EPHEMERIS_TYPE": 0, "CLASSIFICATION_TYPE": "U", "NORAD_CAT_ID": 41747, "ELEMENT_SET_NO": 999, "REV_AT_EPOCH": 3397, "BSTAR": 0, "MEAN_MOTION_DOT": -3e-08, "MEAN_MOTION_DDOT": 0}, "tle": {"line1": "1 41747U 16053A   25336.08854245 -.00000003  00000+0  00000+0 0  9995", "line2": "2 41747   0.0112 345.1763 0001138 336.3829 210.0274  1.00267364 33972"}}, "geometry": {"type": "Point", "coordinates": [-146.12391116174328, -0.028818687118918475]}}, {"type": "Feature", "properties": {"norad_id": 41945, "name": "INTELSAT 32E (IS-32E)", "group": "intelsat", "lat": 0.018961429866723816, "lon": 102.22391964768836, "alt_km": 35786.86543079283, "timestamp": "2025-12-03T04:52:29.309357+00:00", "meta": {"OBJECT_NAME": "INTELSAT 32E (IS-32E)", "OBJECT_ID": "2017-007B", "EPOCH": "2025-12-02T16:59:55.442112", "MEAN_MOTION": 1.00269875, "ECCENTRICITY": 1.35e-05, "INCLINATION": 0.0265, "RA_OF_ASC_NODE": 63.3422, "ARG_OF_PERICENTER": 288.3061, "MEAN_ANOMALY": 291.9751, "EPHEMERIS_TYPE": 0, "CLASSIFICATION_TYPE": "U", "NORAD_CAT_ID": 41945, "ELEMENT_SET_NO": 999, "REV_AT_EPOCH": 3225, "BSTAR": 0, "MEAN_MOTION_DOT": -2.49e-06, "MEAN_MOTION_DDOT": 0}, "tle": {"line1": "1 41945U 17007B   25336.70828058 -.00000249  00000+0  00000+0 0  9999", "line2": "2 41945   0.0265  63.3422 0000135 288.3061 291.9751  1.00269875 32259"}}, "geometry": {"type": "Point", "coordinates": [102.22391964768836, 0.018961429866723816]}}, {"type": "Feature", "properties": {"norad_id": 42818, "name": "INTELSAT 35E (IS-35E)", "group": "intelsat", "lat": 0.018948039154444526, "lon": 110.8981399836641, "alt_km": 35794.02225563607, "timestamp": "2025-12-03T04:52:29.309369+00:00", "meta": {"OBJECT_NAME": "INTELSAT 35E (IS-35E)", "OBJECT_ID": "2017-041A", "EPOCH": "2025-12-02T17:02:40.178400", "MEAN_MOTION": 1.00271129, "ECCENTRICITY": 0.00023, "INCLINATION": 0.0181, "RA_OF_ASC_NODE": 318.62, "ARG_OF_PERICENTER": 294.6528, "MEAN_ANOMALY": 39.7286, "EPHEMERIS_TYPE": 0, "CLASSIFICATION_TYPE": "U", "NORAD_CAT_ID": 42818, "ELEMENT_SET_NO": 999, "REV_AT_EPOCH": 3084, "BSTAR": 0, "MEAN_MOTION_DOT": -2.18e-06, "MEAN_MOTION_DDOT": 0}, "tle": {"line1": "1 42818U 17041A   25336.71018725 -.00000218  00000+0  00000+0 0  9996", "line2": "2 42818   0.0181 318.6200 0002300 294.6528  39.7286  1.00271129 30849"}}, "geometry": {"type": "Point", "coordinates": [110.8981399836641, 0.018948039154444526]}}, {"type": "Feature", "properties": {"norad_id": 42950, "name": "INTELSAT 37E (IS-37E)", "group": "intelsat", "lat": 0.0015974996190788583, "lon": 127.364824883736, "alt_km": 35793.20738355307, "timestamp": "2025-12-03T04:52:29.309380+00:00", "meta": {"OBJECT_NAME": "INTELSAT 37E (IS-37E)", "OBJECT_ID": "2017-059A", "EPOCH": "2025-12-02T17:07:24.722976", "MEAN_MOTION": 1.00270917, "ECCENTRICITY": 0.0003411, "INCLINATION": 0.0149, "RA_OF_ASC_NODE": 306.4288, "ARG_OF_PERICENTER": 299.2671, "MEAN_ANOMALY": 64.9797, "EPHEMERIS_TYPE": 0, "CLASSIFICATION_TYPE": "U", "NORAD_CAT_ID": 42950, "ELEMENT_SET_NO": 999, "REV_AT_EPOCH": 3009, "BSTAR": 0, "MEAN_MOTION_DOT": -1.2e-06, "MEAN_MOTION_DDOT": 0}, "tle": {"line1": "1 42950U 17059A   25336.71348059 -.00000120  00000+0  00000+0 0  9990", "line2": "2 42950   0.0149 306.4288 0003411 299.2671  64.9797  1.00270917 30093"}}, "geometry": {"type": "Point", "coordinates": [127.364824883736, 0.0015974996190788583]}}, {"type": "Feature", "properties": {"norad_id": 43632, "name": "AZERSPACE 2 (IS-38)", "group": "intelsat", "lat": -0.011721167196842871, "lon": -169.51339018053037, "alt_km": 35782.95681869896, "timestamp": "2025-12-03T04:52:29.309392+00:00", "meta": {"OBJECT_NAME": "AZERSPACE 2 (IS-38)", "OBJECT_ID": "2018-074A", "EPOCH": "2025-12-02T17:25:23.001024", "MEAN_MOTION": 1.00271237, "ECCENTRICITY": 0.0001689, "INCLINATION": 0.0021, "RA_OF_ASC_NODE": 0.4539, "ARG_OF_PERICENTER": 253.3292, "MEAN_ANOMALY": 124.5013, "EPHEMERIS_TYPE": 0, "CLASSIFICATION_TYPE": "U", "NORAD_CAT_ID": 43632, "ELEMENT_SET_NO": 999, "REV_AT_EPOCH": 2647, "BSTAR": 0, "MEAN_MOTION_DOT": 1.56e-06, "MEAN_MOTION_DDOT": 0}, "tle": {"line1": "1 43632U 18074A   25336.72596066  .00000156  00000+0  00000+0 0  9998", "line2": "2 43632   0.0021   0.4539 0001689 253.3292 124.5013  1.00271237 26472"}}, "geometry": {"type": "Point", "coordinates": [-169.51339018053037, -0.011721167196842871]}}, {"type": "Feature", "properties": {"norad_id": 43633, "name": "HORIZONS-3E", "group": "intelsat", "lat": 0.016328643817314307, "lon": -45.58097092236351, "alt_km": 35782.828517897724, "timestamp": "2025-12-03T04:52:29.309404+00:00", "meta": {"OBJECT_NAME": "HORIZONS-3E", "OBJECT_ID": "2018-074B", "EPOCH": "2025-12-02T09:32:38.562720", "MEAN_MOTION": 1.00268601, "ECCENTRICITY": 0.00010808, "INCLINATION": 0.0303, "RA_OF_ASC_NODE": 208.778, "ARG_OF_PERICENTER": 80.6678, "MEAN_ANOMALY": 94.2479, "EPHEMERIS_TYPE": 0, "CLASSIFICATION_TYPE": "U", "NORAD_CAT_ID": 43633, "ELEMENT_SET_NO": 999, "REV_AT_EPOCH": 2636, "BSTAR": 0, "MEAN_MOTION_DOT": -1e-07, "MEAN_MOTION_DDOT": 0}, "tle": {"line1": "1 43633U 18074B   25336.39766855 -.00000010  00000+0  00000+0 0  9997", "line2": "2 43633   0.0303 208.7780 0001080  80.6678  94.2479  1.00268601 26369"}}, "geometry": {"type": "Point", "coordinates": [-45.58097092236351, 0.016328643817314307]}}, {"type": "Feature", "properties": {"norad_id": 44333, "name": "AT&T T-16", "group": "intelsat", "lat": 0.014020398017769468, "lon": 44.52804895127004, "alt_km": 35787.907010280396, "timestamp": "2025-12-03T04:52:29.309416+00:00", "meta": {"OBJECT_NAME": "AT&T T-16", "OBJECT_ID": "2019-034A", "EPOCH": "2025-12-02T13:18:20.280096", "MEAN_MOTION": 1.00268726, "ECCENTRICITY": 5.441e-05, "INCLINATION": 0.0275, "RA_OF_ASC_NODE": 65.3397, "ARG_OF_PERICENTER": 93.9137, "MEAN_ANOMALY": 11.1366, "EPHEMERIS_TYPE": 0, "CLASSIFICATION_TYPE": "U", "NORAD_CAT_ID": 44333, "ELEMENT_SET_NO": 999, "REV_AT_EPOCH": 2366, "BSTAR": 0, "MEAN_MOTION_DOT": -9.5e-07, "MEAN_MOTION_DDOT": 0}, "tle": {"line1": "1 44333U 19034A   25336.55440139 -.00000095  00000+0  00000+0 0  9997", "line2": "2 44333   0.0275  65.3397 0000544  93.9137  11.1366  1.00268726 23668"}}, "geometry": {"type": "Point", "coordinates": [44.52804895127004, 0.014020398017769468]}}]}